#dP2022  4 16  0  0  0.00000000      96 __u+U ITR14 FIT  IAC
## 2205 518400.00000000   900.00000000 59685 0.0000000000000
+  127   C01C02C03C04C05C06C07C08C09C10C11C12C13C14C16C19C20
+        C21C22C23C24C25C26C27C28C29C30C32C33C34C35C36C37C38
+        C39C40C41C42C43C44C45C46C60E01E02E03E04E05E07E08E09
+        E10E11E12E13E14E15E18E19E21E24E25E26E27E30E31E33E34
+        E36G01G02G03G04G05G06G07G08G09G10G11G12G13G14G15G16
+        G17G18G19G20G21G22G23G24G25G26G27G28G29G30G31G32J02
+        J03J07R01R02R03R04R05R06R07R08R09R10R11R12R13R14R15
+        R17R18R19R20R21R22R23R24  0  0  0  0  0  0  0  0  0
++        15 15 15 15 15  9  9  9  9  9  9  9  9  8  9  7  7
++         7  7  7  7  7  7  7  7  7  7  7  7  7  7  7  8  8
++         8  8  7  7  7  7  7  8 17  4  4  5  4  5  4  5  5
++         4  4  4  5  4  5  5  4  4  5  4  4  4  5  5  4  5
++         4  4  3  4  4  4  4  4  4  3  4  0  4  4  4  4  4
++         4  4  4  4  4  4  4  4  4  4  4  5  4  4  4  4  8
++         8 15  7  6  6  6  6 13  6  6  6 13  8  6  7  6  6
++         6  6  7  7  6  7 13  6  0  0  0  0  0  0  0  0  0
%c M  cc GPS ccc cccc cccc cccc cccc ccccc ccccc ccccc ccccc
%c cc cc ccc ccc cccc cccc cccc cccc ccccc ccccc ccccc ccccc
%f  0.0000000  0.000000000  0.00000000000  0.000000000000000
%f  0.0000000  0.000000000  0.00000000000  0.000000000000000
%i    0    0    0    0      0      0      0      0         0
%i    0    0    0    0      0      0      0      0         0
/* INFORMATION & ANALYSIS CENTER (IAC)            RAPID DATA
/* S/V CLOCKS ARE ALIGNED TO GNSS TIME                      
/* G:C1WC2W R:C1PC2P E:C1XC5X C:C2IC6I J:C1CC2S             
/* PCV:IGS14_2196 OL/AL:FES2004  NONE     YN ORB:CoN CLK:CoN
*  2022 04 16  3 45  0.00000000
PC01 -34361.619770  24459.790148   -250.044853     88.220891
PC02   4516.290636  41856.122738  -1309.393692    122.407621
PC03 -14696.880418  39478.966995  -1135.186318   -563.240780
PC04 -39615.263621  14456.301878    182.257691   -168.417916
PC05  22008.452708  35928.026320   -984.429590   -420.120597
PC06  -9523.689169  40368.355576  -6926.189763   -196.575402
PC07  -5859.292145  27096.325312  31786.691802      0.892258
PC08 -20258.533156  26272.991005 -26095.410900    261.273598
PC09  -3459.193995  41568.377938   4172.203482   -700.576094
PC10   3164.281087  30103.403025  29760.363103    136.077345
PC11   8211.649310 -25067.471321  -9009.059350    294.491475
PC12  14935.955562  -9690.235937 -21455.169645   -627.769910
PC13 -10312.724378  26835.094190 -30799.897050    -59.432607
PC14   6166.011495 -14844.811947  22833.622501    458.573013
PC16 -10459.386091  39622.001847  -9159.460687    119.740161
PC19   4224.735205  19118.697193 -19860.401728    877.857991
PC20 -13684.967430   9427.703484 -22392.412838   -879.449462
PC21  24527.453390   6620.285879  11599.857172   -120.439454
PC22  20392.412803  18190.253840  -5730.925069   -968.081954
PC23 -12712.465586 -11402.429595 -22070.354063   -932.798309
PC24  23080.471136 -15002.383230  -4511.759562   -953.891977
PC25   5998.509323 -18970.719010 -19567.144371   -750.379018
PC26  25148.736451  -3991.253646  11365.293434    751.152648
PC27 -15845.292719   -766.724152  22935.587924    708.522913
PC28 -10068.093268 -19958.242978  16705.342460     55.808238
PC29   -871.754868  27887.807498   -241.965293    541.951116
PC30 -12146.472382  18952.770132  16465.880791    497.005964
PC32 -24563.216275  -6476.719172 -11514.732661   -963.236978
PC33  -4174.310392 -19088.000274  19927.694164   -967.842836
PC34  11783.581433 -19811.390872 -15762.291055   -424.606608
PC35  10372.914732  20319.799184 -16055.483582    230.819734
PC36  -6998.324365  18907.234448  19316.822097   -964.170447
PC37 -24925.900720   2533.198116 -12300.542339   -923.214609
PC38 -25563.392045  27382.609606 -19452.315329    225.462313
PC39 -12233.520379  37003.424664 -15846.019836     34.943565
PC40  -9216.548347  21283.735588  35201.238989    261.211927
PC41 -20113.145348 -18324.134709   6249.253832   -967.457982
PC42  14634.727707  -8719.957320  22156.141719   -951.751719
PC43   1447.976174 -27880.043077   -453.259054   -929.706843
PC44  16009.897488    390.247293 -22867.423172    629.209021
PC45  12901.556105  11128.774942  22096.292264    732.476688
PC46 -22340.371365  15683.445963   5898.507768   -274.272757
PC60   7328.219247  41522.604991   -214.558329     -0.619334
PE01  -2901.618654 -16684.475195 -24280.914566   -617.233161
PE02   3066.366278  16675.391866  24254.923828    293.109339
PE03   7320.082948  27405.540972  -8476.829608   -548.471474
PE04 -18470.372960 -20975.935481  -9735.554541  -1007.513067
PE05  -8373.654111  17838.892497 -22079.172013   -190.436501
PE07  18972.083804   1961.046549  22649.655993   -659.050001
PE08  18611.694233  20703.815040  10081.330220   -513.083429
PE09 -18791.392164  -1755.885849 -22790.530947   -485.791587
PE10 -17228.528622  -1729.209800  23998.934656   -506.989370
PE11 -20592.753479   9035.816336  19225.871598   3945.689991
PE12 -11416.253113 -11826.485495  24616.412280   4660.685916
PE13  20420.579458  -8456.634994 -19693.857099    428.051971
PE14  -9718.945064 -22207.798340   3578.208181  -1815.626200
PE15  11297.875009  11867.108785 -24646.286263    751.407269
PE18  18708.749995  21522.174983 -14705.633128  -1559.484820
PE19  -5436.432486 -27066.130814  10693.271154  -3088.300477
PE21  17616.830074 -12760.539647 -20076.677964   -728.712978
PE24 -29469.398476    325.234774   2892.725518   -563.387704
PE25 -17881.695333  12640.201347  19920.307818   -570.560174
PE26  17125.277429 -24043.618822  -2234.878189  -1035.390851
PE27  29281.538275  -1272.280519  -4096.968708   -277.249721
PE30  22825.886258  11485.931301  14913.692767   -434.313542
PE31 -23624.203995 -10861.478523 -14149.351863   -495.140488
PE33   4454.486211 -25111.153669  15041.691990   -457.570623
PE34  -4232.567619  25042.810116 -15208.532899   -512.281459
PE36 -17485.676779  23655.326315   3220.150702   -360.298578
PG01 -12890.019784  22025.703050  -6942.415307    384.040452
PG02  19511.909255 -12096.933118 -12823.747563   -653.124515
PG03  -7649.167633  13587.841097 -21590.330285   -208.376592
PG04  -2984.436471  22330.138718 -13990.538047   -175.548532
PG05  22184.998371  -6329.495035  13131.743825    -78.460262
PG06  15073.119773   4091.453058 -21431.912310    268.344581
PG07   1269.134369  19065.137167  18632.728723    320.302633
PG08  -9278.024368  14554.840164  20050.516222    -64.124174
PG09   6319.091757  25377.335533  -4604.059495   -343.422646
PG10 -21032.281073 -11704.318902  11695.399703   -380.804520
PG11      0.000000      0.000000      0.000000 999999.999999
PG12  12274.530959 -11601.130569 -20735.191364   -201.029662
PG13  14043.418612  -5550.876628  21688.114100    294.957051
PG14  19738.125346  13067.200794  12123.075668   -102.784825
PG15   7537.088414 -16337.492528  19031.193599    -68.597330
PG16 -24862.609143    192.493203   9691.430564   -492.068177
PG17  13578.802325  19699.837791 -11048.611373    600.922443
PG18     94.449734 -19167.659708  18332.870066    194.402233
PG19  15324.824528  13720.332568 -17175.622954    144.957897
PG20  26083.971647  -2218.443266   3656.238703    515.806056
PG21 -17845.188028  18576.520263   5425.896863    160.474995
PG22 -15946.862152 -10862.337559 -17920.785717    244.067120
PG23 -11103.052776 -14867.035746  19032.232038    -15.264202
PG24  13943.342007 -22266.776147  -2104.464144    255.936413
PG25  -3223.534591 -15839.306887 -21405.432061    312.538261
PG26 -26256.193537  -4627.903488  -2021.001436    198.932874
PG27 -15068.051992   1714.391753  21629.008412    184.048856
PG28  24092.176428   9999.770506   4802.371616    370.941819
PG29  -3385.796192 -25727.247068  -5566.007181   -503.532560
PG30   9234.249078  13153.047807  21198.943256   -523.954563
PG31 -17337.968233  -1972.236312 -20277.109996   -173.602047
PG32 -15928.672662 -17036.778780 -12737.198179   -106.372771
PJ02 -29879.395332  23552.514420  23164.098447     -2.755419
PJ03 -29254.276012  26583.879329  19693.938339     -1.561730
PJ07 -25398.327637  33647.845230     -8.367222     -0.014533
PR01  -8246.482818 -18087.313571  15982.850954      7.827359
PR02 -18956.183140 -16914.058790  -2578.142507    515.668204
PR03 -17471.026239  -5120.974885 -17841.686601     55.000403
PR04  -6066.629545   9126.281589 -22999.849409    136.928877
PR05   8493.626660  18441.332780 -15410.750407     91.230436
PR06  19719.871469  15741.737134   3668.724029    -43.346887
PR07  17101.125098   4400.953824  18431.969896     33.918150
PR08   6018.223412  -9374.373094  23010.073083    -64.638092
PR09  16911.580082   4418.325708  18623.690558     50.021580
PR10  24441.101661  -4707.513765   5391.229472    -81.540490
PR11  18886.210074 -11859.405495 -12386.477739     41.080043
PR12   1197.167338 -11626.494403 -22648.949599     17.949802
PR13 -15759.345620  -4949.547183 -19456.421584    -20.940766
PR14 -24630.626024   5303.062339  -3927.142057     76.572686
PR15 -18408.244475  11872.375157  13085.739883     96.796551
PR17 -11742.715475   5821.137683  21894.864708    517.914025
PR18 -10478.200430  20498.255716  10933.615999    113.720544
PR19  -4983.536001  24559.098165  -4757.093775   -185.534955
PR20   5625.390031  13569.511010 -20835.195176    -68.712437
PR21  11839.300495  -7284.628322 -21386.177804   -293.682180
PR22  10371.562589 -21060.642397 -10122.007745   -177.187795
PR23   1493.209583 -23263.721308  10356.128781    -37.306942
PR24  -6677.960815 -12934.477660  20958.355567     89.278144
EOF
